[{"OBJECT_NAME":"BEIDOU-3 M19 (C41)","OBJECT_ID":"2019-090A","EPOCH":"2026-03-05T13:26:52.334016","MEAN_MOTION":1.86231373,"ECCENTRICITY":0.0020433,"INCLINATION":56.4687,"RA_OF_ASC_NODE":66.2141,"ARG_OF_PERICENTER":291.4658,"MEAN_ANOMALY":245.9437,"EPHEMERIS_TYPE":0,"CLASSIFICATION_TYPE":"U","NORAD_CAT_ID":44864,"ELEMENT_SET_NO":999,"REV_AT_EPOCH":4230,"BSTAR":0,"MEAN_MOTION_DOT":-3.3e-7,"MEAN_MOTION_DDOT":0},{"OBJECT_NAME":"BEIDOU-3 M20 (C42)","OBJECT_ID":"2019-090B","EPOCH":"2026-03-05T10:15:10.714176","MEAN_MOTION":1.86231388,"ECCENTRICITY":0.0017835,"INCLINATION":56.4702,"RA_OF_ASC_NODE":66.2529,"ARG_OF_PERICENTER":302.9017,"MEAN_ANOMALY":234.8674,"EPHEMERIS_TYPE":0,"CLASSIFICATION_TYPE":"U","NORAD_CAT_ID":44865,"ELEMENT_SET_NO":999,"REV_AT_EPOCH":4228,"BSTAR":0,"MEAN_MOTION_DOT":-3.2e-7,"MEAN_MOTION_DDOT":0},{"OBJECT_NAME":"BEIDOU-3 G2 (C60)","OBJECT_ID":"2020-017A","EPOCH":"2026-03-05T19:30:47.438784","MEAN_MOTION":1.00271514,"ECCENTRICITY":0.0002799,"INCLINATION":2.6571,"RA_OF_ASC_NODE":45.6818,"ARG_OF_PERICENTER":312.9867,"MEAN_ANOMALY":177.5975,"EPHEMERIS_TYPE":0,"CLASSIFICATION_TYPE":"U","NORAD_CAT_ID":45344,"ELEMENT_SET_NO":999,"REV_AT_EPOCH":2222,"BSTAR":0,"MEAN_MOTION_DOT":-1.45e-6,"MEAN_MOTION_DDOT":0},{"OBJECT_NAME":"COSMOS 2545 (760)","OBJECT_ID":"2020-018A","EPOCH":"2026-03-05T01:10:22.448352","MEAN_MOTION":2.13102426,"ECCENTRICITY":0.0008063,"INCLINATION":64.4172,"RA_OF_ASC_NODE":316.0811,"ARG_OF_PERICENTER":250.0323,"MEAN_ANOMALY":109.9417,"EPHEMERIS_TYPE":0,"CLASSIFICATION_TYPE":"U","NORAD_CAT_ID":45358,"ELEMENT_SET_NO":999,"REV_AT_EPOCH":4644,"BSTAR":0,"MEAN_MOTION_DOT":-5.4e-7,"MEAN_MOTION_DDOT":0},{"OBJECT_NAME":"BEIDOU-3 G3 (C61)","OBJECT_ID":"2020-040A","EPOCH":"2026-03-05T21:22:14.772864","MEAN_MOTION":1.00274881,"ECCENTRICITY":0.0004459,"INCLINATION":2.1938,"RA_OF_ASC_NODE":67.1322,"ARG_OF_PERICENTER":317.8552,"MEAN_ANOMALY":209.6878,"EPHEMERIS_TYPE":0,"CLASSIFICATION_TYPE":"U","NORAD_CAT_ID":45807,"ELEMENT_SET_NO":999,"REV_AT_EPOCH":2103,"BSTAR":0,"MEAN_MOTION_DOT":-3.59e-6,"MEAN_MOTION_DDOT":0},{"OBJECT_NAME":"GPS BIII-3  (PRN 23)","OBJECT_ID":"2020-041A","EPOCH":"2026-03-05T06:27:12.230784","MEAN_MOTION":2.00560688,"ECCENTRICITY":0.0061399,"INCLINATION":56.6063,"RA_OF_ASC_NODE":32.9753,"ARG_OF_PERICENTER":205.2468,"MEAN_ANOMALY":328.3125,"EPHEMERIS_TYPE":0,"CLASSIFICATION_TYPE":"U","NORAD_CAT_ID":45854,"ELEMENT_SET_NO":999,"REV_AT_EPOCH":4195,"BSTAR":0,"MEAN_MOTION_DOT":-8.3e-7,"MEAN_MOTION_DDOT":0},{"OBJECT_NAME":"GALAXY 30 (WAAS/PRN 135)","OBJECT_ID":"2020-056C","EPOCH":"2026-03-05T15:06:50.247936","MEAN_MOTION":1.00271232,"ECCENTRICITY":0.0002069,"INCLINATION":0.0225,"RA_OF_ASC_NODE":160.3254,"ARG_OF_PERICENTER":192.9294,"MEAN_ANOMALY":271.8285,"EPHEMERIS_TYPE":0,"CLASSIFICATION_TYPE":"U","NORAD_CAT_ID":46114,"ELEMENT_SET_NO":999,"REV_AT_EPOCH":2025,"BSTAR":0,"MEAN_MOTION_DOT":0,"MEAN_MOTION_DDOT":0},{"OBJECT_NAME":"COSMOS 2547 (705K)","OBJECT_ID":"2020-075A","EPOCH":"2026-03-04T18:26:05.524800","MEAN_MOTION":2.13100113,"ECCENTRICITY":0.0006753,"INCLINATION":64.5996,"RA_OF_ASC_NODE":195.957,"ARG_OF_PERICENTER":229.6375,"MEAN_ANOMALY":130.2687,"EPHEMERIS_TYPE":0,"CLASSIFICATION_TYPE":"U","NORAD_CAT_ID":46805,"ELEMENT_SET_NO":999,"REV_AT_EPOCH":4168,"BSTAR":0,"MEAN_MOTION_DOT":8.0e-8,"MEAN_MOTION_DDOT":0},{"OBJECT_NAME":"GPS BIII-4  (PRN 14)","OBJECT_ID":"2020-078A","EPOCH":"2026-03-05T19:11:29.588928","MEAN_MOTION":2.00565559,"ECCENTRICITY":0.0068279,"INCLINATION":54.0013,"RA_OF_ASC_NODE":214.9691,"ARG_OF_PERICENTER":204.3383,"MEAN_ANOMALY":325.7195,"EPHEMERIS_TYPE":0,"CLASSIFICATION_TYPE":"U","NORAD_CAT_ID":46826,"ELEMENT_SET_NO":999,"REV_AT_EPOCH":3943,"BSTAR":0,"MEAN_MOTION_DOT":1.2e-7,"MEAN_MOTION_DDOT":0},{"OBJECT_NAME":"GPS BIII-5  (PRN 11)","OBJECT_ID":"2021-054A","EPOCH":"2026-03-05T01:41:15.812160","MEAN_MOTION":2.00575594,"ECCENTRICITY":0.0023861,"INCLINATION":55.2207,"RA_OF_ASC_NODE":336.6471,"ARG_OF_PERICENTER":232.0319,"MEAN_ANOMALY":315.6765,"EPHEMERIS_TYPE":0,"CLASSIFICATION_TYPE":"U","NORAD_CAT_ID":48859,"ELEMENT_SET_NO":999,"REV_AT_EPOCH":3466,"BSTAR":0,"MEAN_MOTION_DOT":-1.01e-6,"MEAN_MOTION_DDOT":0},{"OBJECT_NAME":"QZS-1R (QZSS/PRN 196)","OBJECT_ID":"2021-096A","EPOCH":"2026-03-04T22:35:38.651712","MEAN_MOTION":1.00291077,"ECCENTRICITY":0.07475207,"INCLINATION":37.245,"RA_OF_ASC_NODE":81.1219,"ARG_OF_PERICENTER":269.7237,"MEAN_ANOMALY":284.8903,"EPHEMERIS_TYPE":0,"CLASSIFICATION_TYPE":"U","NORAD_CAT_ID":49336,"ELEMENT_SET_NO":999,"REV_AT_EPOCH":1596,"BSTAR":0,"MEAN_MOTION_DOT":-2.63e-6,"MEAN_MOTION_DDOT":0},{"OBJECT_NAME":"GSAT0223 (GALILEO 27)","OBJECT_ID":"2021-116A","EPOCH":"2026-02-17T00:57:26.434656","MEAN_MOTION":1.70475508,"ECCENTRICITY":0.00028659,"INCLINATION":57.2005,"RA_OF_ASC_NODE":344.9238,"ARG_OF_PERICENTER":278.195,"MEAN_ANOMALY":264.6358,"EPHEMERIS_TYPE":0,"CLASSIFICATION_TYPE":"U","NORAD_CAT_ID":49809,"ELEMENT_SET_NO":999,"REV_AT_EPOCH":2613,"BSTAR":0,"MEAN_MOTION_DOT":-7.8e-7,"MEAN_MOTION_DDOT":0},{"OBJECT_NAME":"GSAT0224 (GALILEO 28)","OBJECT_ID":"2021-116B","EPOCH":"2026-03-05T06:58:38.412768","MEAN_MOTION":1.7047576,"ECCENTRICITY":0.0001942,"INCLINATION":57.1948,"RA_OF_ASC_NODE":344.4822,"ARG_OF_PERICENTER":295.2728,"MEAN_ANOMALY":253.6293,"EPHEMERIS_TYPE":0,"CLASSIFICATION_TYPE":"U","NORAD_CAT_ID":49810,"ELEMENT_SET_NO":999,"REV_AT_EPOCH":2643,"BSTAR":0,"MEAN_MOTION_DOT":-1.05e-6,"MEAN_MOTION_DDOT":0},{"OBJECT_NAME":"COSMOS 2557 (706K)","OBJECT_ID":"2022-075A","EPOCH":"2026-03-04T22:23:49.965216","MEAN_MOTION":2.13101614,"ECCENTRICITY":0.00115759,"INCLINATION":64.3588,"RA_OF_ASC_NODE":318.1599,"ARG_OF_PERICENTER":283.5582,"MEAN_ANOMALY":76.3723,"EPHEMERIS_TYPE":0,"CLASSIFICATION_TYPE":"U","NORAD_CAT_ID":52984,"ELEMENT_SET_NO":999,"REV_AT_EPOCH":2849,"BSTAR":0,"MEAN_MOTION_DOT":-5.7e-7,"MEAN_MOTION_DDOT":0},{"OBJECT_NAME":"COSMOS 2559 (707K)","OBJECT_ID":"2022-130A","EPOCH":"2026-03-05T16:35:12.302304","MEAN_MOTION":2.13101297,"ECCENTRICITY":0.0010609,"INCLINATION":64.331,"RA_OF_ASC_NODE":318.2203,"ARG_OF_PERICENTER":181.3136,"MEAN_ANOMALY":178.7423,"EPHEMERIS_TYPE":0,"CLASSIFICATION_TYPE":"U","NORAD_CAT_ID":54031,"ELEMENT_SET_NO":999,"REV_AT_EPOCH":2648,"BSTAR":0,"MEAN_MOTION_DOT":-6.0e-7,"MEAN_MOTION_DDOT":0},{"OBJECT_NAME":"COSMOS 2564 (761)","OBJECT_ID":"2022-161A","EPOCH":"2026-03-05T12:49:51.363264","MEAN_MOTION":2.13101972,"ECCENTRICITY":0.0009447,"INCLINATION":64.7419,"RA_OF_ASC_NODE":196.1496,"ARG_OF_PERICENTER":210.0603,"MEAN_ANOMALY":149.8542,"EPHEMERIS_TYPE":0,"CLASSIFICATION_TYPE":"U","NORAD_CAT_ID":54377,"ELEMENT_SET_NO":999,"REV_AT_EPOCH":2542,"BSTAR":0,"MEAN_MOTION_DOT":1.6e-7,"MEAN_MOTION_DDOT":0},{"OBJECT_NAME":"GPS BIII-6  (PRN 28)","OBJECT_ID":"2023-009A","EPOCH":"2026-03-05T05:50:38.499360","MEAN_MOTION":2.00549197,"ECCENTRICITY":0.0004568,"INCLINATION":55.1095,"RA_OF_ASC_NODE":152.6049,"ARG_OF_PERICENTER":336.6055,"MEAN_ANOMALY":15.2776,"EPHEMERIS_TYPE":0,"CLASSIFICATION_TYPE":"U","NORAD_CAT_ID":55268,"ELEMENT_SET_NO":999,"REV_AT_EPOCH":2315,"BSTAR":0,"MEAN_MOTION_DOT":1.0e-7,"MEAN_MOTION_DDOT":0}]
